COSMOS 2433 (720)       
1 32275U 07052A   23155.99630810 -.00000039  00000+0  00000+0 0  9996
2 32275  66.0426 352.9665 0000570 181.7902 178.2485  2.13104018121448
COSMOS 2432 (719)       
1 32276U 07052B   23156.01499402 -.00000039  00000+0  00000+0 0  9991
2 32276  66.0569 353.0730 0009177 341.6217 340.0936  2.13103280121462
COSMOS 2434 (721)       
1 32393U 07065A   23155.90571167  .00000061  00000+0  00000+0 0  9995
2 32393  64.3397 229.4161 0001338 101.0756  80.3013  2.13103085120151
COSMOS 2436 (723)       
1 32395U 07065C   23156.55484378  .00000057  00000+0  00000+0 0  9991
2 32395  64.3483 229.4547 0015278 356.2199  98.7476  2.13102933120124
COSMOS 2456 (730)       
1 36111U 09070A   23156.59827351  .00000030  00000+0  00000+0 0  9996
2 36111  64.4605 108.9236 0005603 308.4785 204.7170  2.13099110104829
COSMOS 2457 (733)       
1 36112U 09070B   23156.47539631  .00000029  00000+0  00000+0 0  9993
2 36112  64.4443 108.7953 0003403 187.5178   1.4883  2.13101261104860
COSMOS 2460 (732)       
1 36402U 10007C   23155.82211337 -.00000038  00000+0  00000+0 0  9996
2 36402  65.9073 351.7032 0002647  72.4497 322.7357  2.13106252103117
COSMOS 2476 (744)       
1 37867U 11064A   23156.15066450  .00000031  00000+0  00000+0 0  9999
2 37867  64.7422 110.4313 0023159 240.7006 197.6601  2.13101659 90153
COSMOS 2477 (745)       
1 37868U 11064B   23155.81091073  .00000030  00000+0  00000+0 0  9990
2 37868  64.7496 110.5114 0020454 242.1837 113.4461  2.13101550 90147
COSMOS 2475 (743)       
1 37869U 11064C   23156.57328319  .00000032  00000+0  00000+0 0  9993
2 37869  64.7569 110.4970 0025315 257.1142 281.7333  2.13101894 90164
COSMOS 2485 (747)       
1 39155U 13019A   23156.45962189  .00000033  00000+0  00000+0 0  9992
2 39155  64.9034 110.9251 0023441 236.6983 123.0456  2.13101811 78678
COSMOS 2492 (754)       
1 39620U 14012A   23155.94598321 -.00000039  00000+0  00000+0 0  9996
2 39620  65.7916 351.3305 0011903 333.2715  26.7036  2.13103104 71629
COSMOS 2500 (755)       
1 40001U 14032A   23156.13049877 -.00000040  00000+0  00000+0 0  9994
2 40001  65.7300 351.1589 0005279 180.9693 179.0652  2.13105953 69845
COSMOS 2501 (702K)      
1 40315U 14075A   23156.37952266  .00000058  00000+0  00000+0 0  9998
2 40315  63.6437 228.8340 0019590 209.4717 150.5014  2.13101469 66246
COSMOS 2514 (751)       
1 41330U 16008A   23155.89110141 -.00000039  00000+0  00000+0 0  9998
2 41330  65.5279 350.7710 0008576 200.0471 159.9549  2.13102586 57002
COSMOS 2516 (753)       
1 41554U 16032A   23154.60063163  .00000061  00000+0  00000+0 0  9996
2 41554  63.8701 229.2708 0015195 213.8607 146.1206  2.13106532 54589
COSMOS 2522 (752)       
1 42939U 17055A   23156.20271369  .00000059  00000+0  00000+0 0  9994
2 42939  64.1041 229.7138 0008965 239.6133 120.3807  2.13101852 44363
COSMOS 2527 (756)       
1 43508U 18053A   23155.22245961  .00000031  00000+0  00000+0 0  9996
2 43508  65.0649 111.0402 0009119 242.3783 117.4961  2.13102344 38640
COSMOS 2529 (757)       
1 43687U 18086A   23155.79143277  .00000060  00000+0  00000+0 0  9991
2 43687  64.3193 230.1389 0010448 261.0339  98.9292  2.13102078 35666
COSMOS 2534 (758)       
1 44299U 19030A   23155.78777428  .00000060  00000+0  00000+0 0  9991
2 44299  64.3917 230.0570 0012579 281.8735 209.6016  2.13102085 31308
COSMOS 2544 (759)       
1 44850U 19088A   23156.10461438  .00000032  00000+0  00000+0 0  9994
2 44850  65.0510 110.8553 0014314 262.5009  97.3041  2.13102098 27100
COSMOS 2545 (760)       
1 45358U 20018A   23155.36301826 -.00000040  00000+0  00000+0 0  9994
2 45358  64.8681 351.1091 0006625 243.5384 116.4313  2.13102572 25030
COSMOS 2547 (705K)      
1 46805U 20075A   23156.02196881  .00000060  00000+0  00000+0 0  9993
2 46805  64.6186 229.5779 0007940 241.5872 118.4153  2.13103128 20293
COSMOS 2557 (706K)      
1 52984U 22075A   23156.18365995 -.00000043  00000+0  00000+0 0  9993
2 52984  64.7810 353.2497 0010518 286.1259  73.7962  2.13101968  7100
COSMOS 2559 (707K)      
1 54031U 22130A   23156.12530704 -.00000043  00000+0  00000+0 0  9996
2 54031  64.7520 353.3825 0004799 213.1730 146.8353  2.13101178  5070
COSMOS 2564 (761)       
1 54377U 22161A   23156.31921958  .00000059  00000+0  00000+0 0  9995
2 54377  64.7590 229.6045 0010230 222.2035 137.8005  2.13102089  4025
